HELIOS 2A               
1 28492U 04049A   23001.31498154  .00002323  00000+0  22487-3 0  9998
2 28492  98.2595 318.8781 0014765 147.0279 213.1866 14.93754940964657
SPIRALE A               
1 33751U 09008C   23001.50830377  .00000198  00000+0  67733-3 0  9991
2 33751   2.1069  66.9168 5461146 260.7186  36.4806  4.58899653203911
SPIRALE B               
1 33752U 09008D   23001.38741776  .00002241  00000+0  93951-3 0  9994
2 33752   2.2018  11.1676 6835853   1.7586 359.7887  2.83585094130681
SAPPHIRE                
1 39088U 13009C   23001.46314292  .00000149  00000+0  68078-4 0  9994
2 39088  98.4154 197.1975 0012252  51.8849 308.3439 14.34356993515500
